stk.v.12.0
WrittenBy    STK_v12.10.0

BEGIN Aircraft

    Name		 MissionAcft

    BEGIN VehiclePath
        CentralBody		 Earth

        BEGIN Interval

            StartTime		 1 May 2023 17:00:00.000000000
            StopTime		 1 May 2023 21:19:03.672930791

        END Interval

        StoreEphemeris		 Yes
        SmoothInterp		 No

        BEGIN Aviator

            OptimizeForSpeed		 No

        END Aviator

    END VehiclePath

    BEGIN Ephemeris

        NumberOfEphemerisPoints		 1324

        ScenarioEpoch		 1 May 2023 17:00:00.000000

# Epoch in JDate format: 2460066.20833333333333
# Epoch in YYDDD format:   23121.70833333333333


        InterpolationMethod		 Aviator

        InterpolationSamplesM1		 1

        CentralBody		 Earth

        CoordinateSystem		 Fixed

        BlockingFactor		 20

# Time of first point: 1 May 2023 17:00:00.000000000 UTCG = 2460066.20833333333333 JDate = 23121.70833333333333 YYDDD

        EphemerisTimePosVel		

 1.4953927537178090e+04 -2.3425006065477212e+06 -4.6634138295042664e+06  3.6708106264192378e+06 -2.2118618434792572e+02  7.3840036801756654e+01 -8.2135057824714110e+01
 1.4954927537178090e+04 -2.3427221143022026e+06 -4.6633398796523539e+06  3.6707283670973824e+06 -2.2118275607307098e+02  7.3847060353949814e+01 -8.2140593888223805e+01
 1.4955927537178090e+04 -2.3429436179350945e+06 -4.6632659229997648e+06  3.6706461024911506e+06 -2.2117932743144280e+02  7.3854083871357815e+01 -8.2146129888549609e+01
 1.4956927537178090e+04 -2.3431651174460477e+06 -4.6631919595465781e+06  3.6705638326006411e+06 -2.2117589842303911e+02  7.3861107353970610e+01 -8.2151665825680041e+01
 1.4957927537178090e+04 -2.3433866128347176e+06 -4.6631179892928740e+06  3.6704815574259507e+06 -2.2117246904785736e+02  7.3868130801774726e+01 -8.2157201699607981e+01
 1.4958927537178090e+04 -2.3436081041007540e+06 -4.6630440122387316e+06  3.6703992769671767e+06 -2.2116903930589586e+02  7.3875154214760528e+01 -8.2162737510321705e+01
 1.4959927537178090e+04 -2.3438295912438161e+06 -4.6629700283842273e+06  3.6703169912244175e+06 -2.2116560919715138e+02  7.3882177592915880e+01 -8.2168273257812345e+01
 1.4960927537178090e+04 -2.3440510742635629e+06 -4.6628960377294393e+06  3.6702347001977726e+06 -2.2116217872162190e+02  7.3889200936229372e+01 -8.2173808942070551e+01
 1.4961927537178090e+04 -2.3442725531596444e+06 -4.6628220402744478e+06  3.6701524038873399e+06 -2.2115874787930534e+02  7.3896224244689904e+01 -8.2179344563086275e+01
 1.4962927537178090e+04 -2.3444940279317168e+06 -4.6627480360193318e+06  3.6700701022932157e+06 -2.2115531667019914e+02  7.3903247518285880e+01 -8.2184880120850110e+01
 1.4963927537178090e+04 -2.3447154985794355e+06 -4.6626740249641668e+06  3.6699877954154997e+06 -2.2115188509430095e+02  7.3910270757006430e+01 -8.2190415615351739e+01
 1.4964927537178090e+04 -2.3449369651024537e+06 -4.6626000071090367e+06  3.6699054832542874e+06 -2.2114845315160855e+02  7.3917293960839956e+01 -8.2195951046581797e+01
 1.4965927537178090e+04 -2.3451584275004305e+06 -4.6625259824540159e+06  3.6698231658096784e+06 -2.2114502084211941e+02  7.3924317129775190e+01 -8.2201486414530720e+01
 1.4966927537178090e+04 -2.3453798857730189e+06 -4.6624519509991854e+06  3.6697408430817705e+06 -2.2114158816583117e+02  7.3931340263800365e+01 -8.2207021719189015e+01
 1.4967927537178090e+04 -2.3456013399198717e+06 -4.6623779127446217e+06  3.6696585150706624e+06 -2.2113815512274184e+02  7.3938363362904425e+01 -8.2212556960546863e+01
 1.4968927537178090e+04 -2.3458227899406464e+06 -4.6623038676904058e+06  3.6695761817764505e+06 -2.2113472171284900e+02  7.3945386427076400e+01 -8.2218092138594159e+01
 1.4969927537178090e+04 -2.3460442358349976e+06 -4.6622298158366121e+06  3.6694938431992345e+06 -2.2113128793615002e+02  7.3952409456304395e+01 -8.2223627253321709e+01
 1.4970927537178090e+04 -2.3462656776025821e+06 -4.6621557571833245e+06  3.6694114993391135e+06 -2.2112785379264284e+02  7.3959432450577054e+01 -8.2229162304720063e+01
 1.4971927537178090e+04 -2.3464871152430503e+06 -4.6620816917306213e+06  3.6693291501961802e+06 -2.2112441928232488e+02  7.3966455409883608e+01 -8.2234697292778492e+01
 1.4972927537178090e+04 -2.3467085487560621e+06 -4.6620076194785768e+06  3.6692467957705394e+06 -2.2112098440519404e+02  7.3973478334211748e+01 -8.2240232217488838e+01
 1.4973927537178090e+04 -2.3469299781412720e+06 -4.6619335404272731e+06  3.6691644360622843e+06 -2.2111754916124772e+02  7.3980501223551073e+01 -8.2245767078840089e+01
 1.4974927537178090e+04 -2.3471514033983322e+06 -4.6618594545767885e+06  3.6690820710715149e+06 -2.2111411355048384e+02  7.3987524077889702e+01 -8.2251301876823234e+01
 1.4975927537178090e+04 -2.3473728245268981e+06 -4.6617853619272029e+06  3.6689997007983271e+06 -2.2111067757290016e+02  7.3994546897216679e+01 -8.2256836611428128e+01
 1.4976927537178090e+04 -2.3475942415266279e+06 -4.6617112624785937e+06  3.6689173252428230e+06 -2.2110724122849410e+02  7.4001569681520209e+01 -8.2262371282645688e+01
 1.4977927537178090e+04 -2.3478156543971738e+06 -4.6616371562310373e+06  3.6688349444050998e+06 -2.2110380451726343e+02  7.4008592430788809e+01 -8.2267905890466253e+01
 1.4978927537178090e+04 -2.3480370631381921e+06 -4.6615630431846175e+06  3.6687525582852513e+06 -2.2110036743920568e+02  7.4015615145012319e+01 -8.2273440434878765e+01
 1.4979927537178090e+04 -2.3482584677493400e+06 -4.6614889233394088e+06  3.6686701668833797e+06 -2.2109692999431846e+02  7.4022637824177565e+01 -8.2278974915875722e+01
 1.4980927537178090e+04 -2.3484798682302670e+06 -4.6614147966954913e+06  3.6685877701995848e+06 -2.2109349218259999e+02  7.4029660468274670e+01 -8.2284509333445826e+01
 1.4981927537178090e+04 -2.3487012645806349e+06 -4.6613406632529469e+06  3.6685053682339573e+06 -2.2109005400404735e+02  7.4036683077291755e+01 -8.2290043687579839e+01
 1.4982927537178090e+04 -2.3489226568000899e+06 -4.6612665230118502e+06  3.6684229609866035e+06 -2.2108661545865846e+02  7.4043705651217223e+01 -8.2295577978268128e+01
 1.4983927537178090e+04 -2.3491440448882948e+06 -4.6611923759722821e+06  3.6683405484576188e+06 -2.2108317654643076e+02  7.4050728190039919e+01 -8.2301112205501113e+01
 1.4984927537178090e+04 -2.3493654288449064e+06 -4.6611182221343210e+06  3.6682581306470968e+06 -2.2107973726736236e+02  7.4057750693749014e+01 -8.2306646369268805e+01
 1.4985927537178090e+04 -2.3495868083141595e+06 -4.6610440607929835e+06  3.6681757069965387e+06 -2.2107629762140519e+02  7.4064773162317366e+01 -8.2312180469544643e+01
 1.4986927537178090e+04 -2.3498081835994958e+06 -4.6609698925511604e+06  3.6680932779836319e+06 -2.2107285760859560e+02  7.4071795595746508e+01 -8.2317714506333715e+01
 1.4987927537178090e+04 -2.3500295547497994e+06 -4.6608957175065996e+06  3.6680108436858701e+06 -2.2106941722893822e+02  7.4078817994027659e+01 -8.2323248479628333e+01
 1.4988927537178090e+04 -2.3502509217647268e+06 -4.6608215356593840e+06  3.6679284041033452e+06 -2.2106597648243059e+02  7.4085840357148797e+01 -8.2328782389419771e+01
 1.4989927537178090e+04 -2.3504722846439341e+06 -4.6607473470095890e+06  3.6678459592361590e+06 -2.2106253536907033e+02  7.4092862685099547e+01 -8.2334316235697173e+01
 1.4990927537178090e+04 -2.3506936433870750e+06 -4.6606731515572928e+06  3.6677635090844096e+06 -2.2105909388885487e+02  7.4099884977867973e+01 -8.2339850018451344e+01
 1.4991927537178090e+04 -2.3509149979937989e+06 -4.6605989493025783e+06  3.6676810536481929e+06 -2.2105565204178254e+02  7.4106907235442378e+01 -8.2345383737673245e+01
 1.4992927537178090e+04 -2.3511363484637658e+06 -4.6605247402455211e+06  3.6675985929276114e+06 -2.2105220982785025e+02  7.4113929457812759e+01 -8.2350917393351210e+01
 1.4993927537178090e+04 -2.3513576947966283e+06 -4.6604505243862020e+06  3.6675161269227569e+06 -2.2104876724705650e+02  7.4120951644966425e+01 -8.2356450985477849e+01
 1.4994927537178090e+04 -2.3515790369920381e+06 -4.6603763017246993e+06  3.6674336556337327e+06 -2.2104532429939820e+02  7.4127973796892093e+01 -8.2361984514042518e+01
 1.4995927537178090e+04 -2.3518003750496497e+06 -4.6603020722610895e+06  3.6673511790606361e+06 -2.2104188098487350e+02  7.4134995913578990e+01 -8.2367517979035242e+01
 1.4996927537178090e+04 -2.3520217089691232e+06 -4.6602278359954534e+06  3.6672686972035621e+06 -2.2103843730347992e+02  7.4142017995015351e+01 -8.2373051380447095e+01
 1.4997927537178090e+04 -2.3522430387501051e+06 -4.6601535929278685e+06  3.6671862100626123e+06 -2.2103499325521528e+02  7.4149040041190389e+01 -8.2378584718267362e+01
 1.4998927537178090e+04 -2.3524643643922540e+06 -4.6600793430584166e+06  3.6671037176378840e+06 -2.2103154884007671e+02  7.4156062052091897e+01 -8.2384117992487148e+01
 1.4999927537178090e+04 -2.3526856858952246e+06 -4.6600050863871733e+06  3.6670212199294758e+06 -2.2102810405806292e+02  7.4163084027708749e+01 -8.2389651203097273e+01
 1.5000927537178090e+04 -2.3529070032586702e+06 -4.6599308229142176e+06  3.6669387169374824e+06 -2.2102465890917057e+02  7.4170105968030214e+01 -8.2395184350086581e+01
 1.5001927537178090e+04 -2.3531283164822413e+06 -4.6598565526396306e+06  3.6668562086620075e+06 -2.2102121339339786e+02  7.4177127873044384e+01 -8.2400717433446133e+01
 1.5002927537178090e+04 -2.3533496255655973e+06 -4.6597822755634896e+06  3.6667736951031475e+06 -2.2101776751074274e+02  7.4184149742740033e+01 -8.2406250453166507e+01
 1.5003927537178090e+04 -2.3535709305083868e+06 -4.6597079916858757e+06  3.6666911762609980e+06 -2.2101432126120241e+02  7.4191171577105720e+01 -8.2411783409237543e+01
 1.5004927537178090e+04 -2.3537922313102707e+06 -4.6596337010068605e+06  3.6666086521356613e+06 -2.2101087464477456e+02  7.4198193376130376e+01 -8.2417316301649464e+01
 1.5005927537178090e+04 -2.3540135279708998e+06 -4.6595594035265315e+06  3.6665261227272321e+06 -2.2100742766145692e+02  7.4205215139801766e+01 -8.2422849130393672e+01
